RADUGA 1 [-]            
1 08513U 75123A   17291.01768539 -.00000210  00000-0  00000+0 0  9997
2 08513  10.2853 310.7270 0006634 203.4148 322.6785  1.00257350163218
RADUGA 2 [-]            
1 09416U 76092A   17290.12688193 -.00000044  00000-0  00000+0 0  9999
2 09416  10.9062 312.5877 0030666 302.3006 242.4484  1.00256320 97595
RADUGA 3 [-]            
1 10159U 77071A   17290.88951690 -.00000388  00000-0  00000-0 0  9993
2 10159  11.4604 314.8362 0009049 216.8594 285.2706  1.00237524145316
RADUGA 4 [-]            
1 10987U 78073A   17290.20684009  .00000112  00000-0  00000+0 0  9991
2 10987  11.9965 317.7367 0013533 300.1496 242.0056  1.00248841 87855
RADUGA 5 [-]            
1 11343U 79035A   17290.12688193 -.00000084  00000-0  00000-0 0  9996
2 11343  12.3785 320.0041 0000857 206.5773 335.4034  1.00294631 97611
RADUGA 6 [-]            
1 11708U 80016A   17289.73626924  .00000102  00000-0  00000+0 0  9990
2 11708  12.6425 322.5005 0004512 258.6691 111.9452  1.00290108 90402
RADUGA 7 [-]            
1 12003U 80081A   17290.61058297 -.00000136  00000-0  00000-0 0  9991
2 12003  12.7610 324.1164 0013639 243.3009 292.8408  1.00384053 91578
RADUGA 8 [-]            
1 12351U 81027A   17290.45699234 -.00000348  00000-0  00000-0 0  9997
2 12351  13.0604 324.8997 0084943 181.1404 176.2804  1.00369356 90771
RADUGA 9 [-]            
1 12618U 81069A   17290.02518578  .00000083  00000-0  00000-0 0  9998
2 12618  13.1807 327.1220 0002372 289.3633 184.8472  1.00329116 15604
RADUGA 10 [-]           
1 12897U 81102A   17286.56883646 -.00000028  00000-0  00000+0 0  9999
2 12897  13.2338 327.9178 0003195 195.7396 128.2406  1.00276988 85629
RADUGA 11 [-]           
1 13669U 82113A   17290.11796275 -.00000102  00000-0  00000+0 0  9990
2 13669  14.7326 339.0218 0041603 213.1424 161.6833  0.97708008 90609
RADUGA 12 [-]           
1 13974U 83028A   17290.67964189 -.00000135  00000-0  00000+0 0  9993
2 13974  13.9358 336.2837 0003893 286.4547  85.0710  1.00249672137649
RADUGA 13 [-]           
1 14307U 83088A   17290.09936935 -.00000107  00000-0  00000+0 0  9993
2 14307  14.8729 340.7111 0016931 340.3775  30.4003  0.98173499 87863
RADUGA 14 [-]           
1 14725U 84016A   17289.73691718 -.00000064  00000-0  00000-0 0  9998
2 14725  13.9563 339.4110 0001625 258.5460 120.7002  1.00293834 86368
RADUGA 15 [-]           
1 15057U 84063A   17286.16368916 -.00000142  00000-0  00000+0 0  9990
2 15057  14.0220 340.4119 0001727 213.4550 326.5576  1.00165944109316
RADUGA 16 [-]           
1 15946U 85070A   17290.49119483 -.00000243  00000-0  00000-0 0  9993
2 15946  14.2168 344.5683 0004611 255.5501 240.4204  1.00172716 90490
RADUGA 17 [-]           
1 16250U 85107A   17290.45154799 -.00000316  00000-0  00000+0 0  9998
2 16250  14.2651 345.7551 0009920 167.0065 337.1731  1.00150800120104
RADUGA 18 [-]           
1 16497U 86007A   17290.45818914 -.00000218  00000-0  00000+0 0  9998
2 16497  14.9446 348.0644 0069208 121.3113 260.1074  0.98814833114643
RADUGA 19 [-]           
1 17046U 86082A   17288.42487247 -.00000025  00000-0  00000+0 0  9993
2 17046  15.1296 351.5850 0007075 125.1822 297.9712  0.98459190111770
RADUGA 20 [-]           
1 17611U 87028A   17289.90604897 -.00000167  00000-0  00000+0 0  9995
2 17611  16.9430 355.0976 0022573  95.4013 263.2109  0.95963023107926
RADUGA 21 [-]           
1 18631U 87100A   17291.20467102 -.00000319  00000-0  00000+0 0  9990
2 18631  15.0886 353.3244 0003139 256.8186 156.8341  1.00299967109354
RADUGA 22 [-]           
1 19596U 88095A   17290.40743663  .00000048  00000-0  00000-0 0  9994
2 19596  14.7919 356.9982 0001689 183.1105   6.1889  1.00299093 89910
RADUGA 23 [-]           
1 19928U 89030A   17289.73669611 -.00000002  00000-0  00000-0 0  9998
2 19928  14.8121 358.6795 0016850 129.6228 221.2729  1.00358149103102
RADUGA-1 1 [-]          
1 20083U 89048A   17287.99424435 -.00000250  00000-0  00000+0 0  9994
2 20083  15.3763   1.3223 0015231  66.7404 298.7839  0.98710483 99992
RADUGA 24 [-]           
1 20367U 89098A   17290.68006115 -.00000281  00000-0  00000-0 0  9990
2 20367  15.2095   1.2111 0004885 246.2398 117.3250  1.00220879101243
RADUGA 25 [-]           
1 20499U 90016A   17291.05882918 -.00000303  00000-0  00000+0 0  9997
2 20499  14.9416   1.6330 0004053 238.2870 123.8477  1.00320758101220
RADUGA 26 [-]           
1 21016U 90112A   17289.71266509  .00000039  00000-0  00000-0 0  9998
2 21016  15.0105   4.7737 0003006 332.7446   0.0467  1.00249646 98512
RADUGA-1 2 [-]          
1 21038U 90116A   17291.02775097 -.00000073  00000-0  00000+0 0  9998
2 21038  15.0417   4.8678 0002794  13.2580  89.2848  1.00215778 98184
RADUGA 27 [-]           
1 21132U 91014A   17290.65882352 -.00000330  00000-0  00000-0 0  9999
2 21132  15.5674   5.0297 0003242 269.0187  86.6203  1.00366705 97577
RADUGA 28 [-]           
1 21821U 91087A   17290.71993811 -.00000201  00000-0  00000+0 0  9990
2 21821  15.0673   8.1578 0001453 138.7676 223.9072  1.00185430 94626
RADUGA 29 [-]           
1 22557U 93013A   17288.61946509 -.00000390  00000-0  00000+0 0  9995
2 22557  14.9467  12.2764 0000592 199.9251 153.3956  1.00204998 89943
RADUGA 30 [-]           
1 22836U 93062A   17289.74418078 -.00000171  00000-0  00000-0 0  9997
2 22836  14.8436  14.0813 0007209 246.5306 112.4064  1.00282157 14256
RADUGA-1 3 [-]          
1 22981U 94008A   17290.71369017 -.00000285  00000-0  00000-0 0  9992
2 22981  14.8312  15.2666 0003577 236.5374 123.5348  1.00316188 86740
RADUGA 31 [-]           
1 23010U 94012A   17290.77546113  .00000096  00000-0  00000-0 0  9990
2 23010  14.7993  15.2350 0001886 276.6433  57.5984  1.00276014 86611
RADUGA 32 [-]           
1 23448U 94087A   17290.76368720 -.00000158  00000-0  00000+0 0  9991
2 23448  14.5761  17.7802 0009981 211.1006 151.0045  1.00281724101216
RADUGA-1 4 [-]          
1 25642U 99010A   17290.15521400  .00000114  00000-0  00000+0 0  9990
2 25642  14.2175  29.9719 0006920 218.4948 229.1441  1.00290123 68231
RADUGA-1 5 [-]          
1 26477U 00049A   17290.86924271  .00000056  00000-0  00000+0 0  9997
2 26477  11.8943  32.3739 0002853 243.3041 119.0062  1.00220997 62766
RADUGA-1 6 [-]          
1 26936U 01045A   17289.63521524 -.00000195  00000-0  00000-0 0  9997
2 26936  11.5853  37.8038 0016399 142.2615 218.0782  0.97745835 57658
RADUGA-1 7 [-]          
1 28194U 04010A   17289.95952455  .00000119  00000-0  00000-0 0  9991
2 28194   9.8777  45.0447 0004727 198.7609 159.0152  1.00210387 49668
RADUGA-1M 1 [-]         
1 32373U 07058A   17290.73382573 -.00000286  00000-0  00000+0 0  9991
2 32373   3.3249  73.0323 0004549 194.7892 180.3340  0.99401965 36866
RADUGA-1 8 [-]          
1 34264U 09010A   17290.69351622 -.00000260  00000-0  00000-0 0  9991
2 34264   5.9717  67.1989 0009481 297.8162 245.1140  0.99830296 31587
RADUGA-1M 2 [+]         
1 36358U 10002A   17290.76368720 -.00000207  00000-0  00000+0 0  9995
2 36358   0.0280 255.8250 0002427  14.0563 116.5154  1.00271600 28288
RADUGA-1M 3 [+]         
1 39375U 13062A   17290.90705168 -.00000061  00000-0  00000-0 0  9992
2 39375   0.0080 210.8713 0002508  46.6020 165.6665  1.00271883 14406
